{"type": "FeatureCollection", "features": [ {"type": "Feature", "properties": {"norad_id": 34635, "name": "COSMOS 2251 DEB", "group": "cosmos-2251-debris", "lat": -52.523942391350296, "lon": 42.038025604445714, "alt_km": 692.8466282253858, "timestamp": "2025-12-16T05:49:09.608119+00:00", "meta": {"OBJECT_NAME": "COSMOS 2251 DEB", "OBJECT_ID": "1993-036XG", "EPOCH": "2025-12-15T22:41:24.204192", "MEAN_MOTION": 14.68313353, "ECCENTRICITY": 0.00282821, "INCLINATION": 74.0463, "RA_OF_ASC_NODE": 64.5203, "ARG_OF_PERICENTER": 132.1933, "MEAN_ANOMALY": 42.6522, "EPHEMERIS_TYPE": 0, "CLASSIFICATION_TYPE": "U", "NORAD_CAT_ID": 34635, "ELEMENT_SET_NO": 999, "REV_AT_EPOCH": 73266, "BSTAR": 0.00076389456, "MEAN_MOTION_DOT": 4.407e-05, "MEAN_MOTION_DDOT": 0}, "tle": {"line1": "1 34635U 93036XG  25349.94541903  .00004407  00000+0  76389-3 0  9990", "line2": "2 34635  74.0463  64.5203 0028282 132.1933  42.6522 14.68313353732663"}}, "geometry": {"type": "Point", "coordinates": [42.038025604445714, -52.523942391350296]}}, {"type": "Feature", "properties": {"norad_id": 34637, "name": "COSMOS 2251 DEB", "group": "cosmos-2251-debris", "lat": 29.570493456829812, "lon": 103.81612164666439, "alt_km": 714.7927744803956, "timestamp": "2025-12-16T05:49:09.608129+00:00", "meta": {"OBJECT_NAME": "COSMOS 2251 DEB", "OBJECT_ID": "1993-036XJ", "EPOCH": "2025-12-15T08:33:28.416096", "MEAN_MOTION": 14.60124786, "ECCENTRICITY": 0.00496143, "INCLINATION": 74.0492, "RA_OF_ASC_NODE": 96.1657, "ARG_OF_PERICENTER": 165.9201, "MEAN_ANOMALY": 250.7279, "EPHEMERIS_TYPE": 0, "CLASSIFICATION_TYPE": "U", "NORAD_CAT_ID": 34637, "ELEMENT_SET_NO": 999, "REV_AT_EPOCH": 88565, "BSTAR": 0.0006484021, "MEAN_MOTION_DOT": 3.145e-05, "MEAN_MOTION_DDOT": 0}, "tle": {"line1": "1 34637U 93036XJ  25349.35657889  .00003145  00000+0  64840-3 0  9995", "line2": "2 34637  74.0492  96.1657 0049614 165.9201 250.7279 14.60124786885656"}}, "geometry": {"type": "Point", "coordinates": [103.81612164666439, 29.570493456829812]}}, {"type": "Feature", "properties": {"norad_id": 34641, "name": "COSMOS 2251 DEB", "group": "cosmos-2251-debris", "lat": -70.99623751788212, "lon": 17.624170079176984, "alt_km": 721.1581380142607, "timestamp": "2025-12-16T05:49:09.608139+00:00", "meta": {"OBJECT_NAME": "COSMOS 2251 DEB", "OBJECT_ID": "1993-036XN", "EPOCH": "2025-12-15T07:17:46.997088", "MEAN_MOTION": 14.52026523, "ECCENTRICITY": 0.00185102, "INCLINATION": 73.8398, "RA_OF_ASC_NODE": 76.7578, "ARG_OF_PERICENTER": 350.8405, "MEAN_ANOMALY": 65.8757, "EPHEMERIS_TYPE": 0, "CLASSIFICATION_TYPE": "U", "NORAD_CAT_ID": 34641, "ELEMENT_SET_NO": 999, "REV_AT_EPOCH": 88293, "BSTAR": 0.00068033597, "MEAN_MOTION_DOT": 2.727e-05, "MEAN_MOTION_DDOT": 0}, "tle": {"line1": "1 34641U 93036XN  25349.30401617  .00002727  00000+0  68034-3 0  9995", "line2": "2 34641  73.8398  76.7578 0018510 350.8405  65.8757 14.52026523882936"}}, "geometry": {"type": "Point", "coordinates": [17.624170079176984, -70.99623751788212]}}, {"type": "Feature", "properties": {"norad_id": 34642, "name": "COSMOS 2251 DEB", "group": "cosmos-2251-debris", "lat": 50.867137847641175, "lon": -5.622890364264729, "alt_km": 912.6010734962865, "timestamp": "2025-12-16T05:49:09.608149+00:00", "meta": {"OBJECT_NAME": "COSMOS 2251 DEB", "OBJECT_ID": "1993-036XP", "EPOCH": "2025-12-15T09:40:18.493248", "MEAN_MOTION": 13.98981771, "ECCENTRICITY": 0.0206936, "INCLINATION": 74.0048, "RA_OF_ASC_NODE": 335.1881, "ARG_OF_PERICENTER": 154.4374, "MEAN_ANOMALY": 355.5045, "EPHEMERIS_TYPE": 0, "CLASSIFICATION_TYPE": "U", "NORAD_CAT_ID": 34642, "ELEMENT_SET_NO": 999, "REV_AT_EPOCH": 85330, "BSTAR": 0.00074513778, "MEAN_MOTION_DOT": 1.27e-05, "MEAN_MOTION_DDOT": 0}, "tle": {"line1": "1 34642U 93036XP  25349.40299182  .00001270  00000+0  74514-3 0  9991", "line2": "2 34642  74.0048 335.1881 0206936 154.4374 355.5045 13.98981771853307"}}, "geometry": {"type": "Point", "coordinates": [-5.622890364264729, 50.867137847641175]}}, {"type": "Feature", "properties": {"norad_id": 34671, "name": "COSMOS 2251 DEB", "group": "cosmos-2251-debris", "lat": -31.355410180758966, "lon": -42.41469983666429, "alt_km": 668.487013514261, "timestamp": "2025-12-16T05:49:09.608159+00:00", "meta": {"OBJECT_NAME": "COSMOS 2251 DEB", "OBJECT_ID": "1993-036XR", "EPOCH": "2025-12-15T19:22:13.082304", "MEAN_MOTION": 14.66993297, "ECCENTRICITY": 0.00112124, "INCLINATION": 74.026, "RA_OF_ASC_NODE": 128.3736, "ARG_OF_PERICENTER": 208.8056, "MEAN_ANOMALY": 225.4971, "EPHEMERIS_TYPE": 0, "CLASSIFICATION_TYPE": "U", "NORAD_CAT_ID": 34671, "ELEMENT_SET_NO": 999, "REV_AT_EPOCH": 88342, "BSTAR": 0.0010754402, "MEAN_MOTION_DOT": 6.006e-05, "MEAN_MOTION_DDOT": 0}, "tle": {"line1": "1 34671U 93036XR  25349.80709586  .00006006  00000+0  10754-2 0  9998", "line2": "2 34671  74.0260 128.3736 0011212 208.8056 225.4971 14.66993297883429"}}, "geometry": {"type": "Point", "coordinates": [-42.41469983666429, -31.355410180758966]}}, {"type": "Feature", "properties": {"norad_id": 34672, "name": "COSMOS 2251 DEB", "group": "cosmos-2251-debris", "lat": 6.632184305415066, "lon": -58.93581621044838, "alt_km": 755.1927874362818, "timestamp": "2025-12-16T05:49:09.608169+00:00", "meta": {"OBJECT_NAME": "COSMOS 2251 DEB", "OBJECT_ID": "1993-036XS", "EPOCH": "2025-12-11T16:16:44.249952", "MEAN_MOTION": 14.36406242, "ECCENTRICITY": 0.00236356, "INCLINATION": 74.0334, "RA_OF_ASC_NODE": 307.539, "ARG_OF_PERICENTER": 19.6523, "MEAN_ANOMALY": 155.1005, "EPHEMERIS_TYPE": 0, "CLASSIFICATION_TYPE": "U", "NORAD_CAT_ID": 34672, "ELEMENT_SET_NO": 999, "REV_AT_EPOCH": 65162, "BSTAR": 0.00043649208, "MEAN_MOTION_DOT": 1.257e-05, "MEAN_MOTION_DDOT": 0}, "tle": {"line1": "1 34672U 93036XS  25345.67828993  .00001257  00000+0  43649-3 0  9997", "line2": "2 34672  74.0334 307.5390 0023635  19.6523 155.1005 14.36406242651626"}}, "geometry": {"type": "Point", "coordinates": [-58.93581621044838, 6.632184305415066]}}, {"type": "Feature", "properties": {"norad_id": 34678, "name": "COSMOS 2251 DEB", "group": "cosmos-2251-debris", "lat": 64.39584246900405, "lon": 142.65056188491144, "alt_km": 776.8292326039109, "timestamp": "2025-12-16T05:49:09.608179+00:00", "meta": {"OBJECT_NAME": "COSMOS 2251 DEB", "OBJECT_ID": "1993-036XY", "EPOCH": "2025-12-15T11:32:24.073152", "MEAN_MOTION": 14.30065481, "ECCENTRICITY": 0.00244829, "INCLINATION": 74.0377, "RA_OF_ASC_NODE": 0.7093, "ARG_OF_PERICENTER": 48.9652, "MEAN_ANOMALY": 101.5044, "EPHEMERIS_TYPE": 0, "CLASSIFICATION_TYPE": "U", "NORAD_CAT_ID": 34678, "ELEMENT_SET_NO": 999, "REV_AT_EPOCH": 87418, "BSTAR": 3.6311485e-05, "MEAN_MOTION_DOT": 6.8e-07, "MEAN_MOTION_DDOT": 0}, "tle": {"line1": "1 34678U 93036XY  25349.48083418  .00000068  00000+0  36311-4 0  9999", "line2": "2 34678  74.0377   0.7093 0024482  48.9652 101.5044 14.30065481874186"}}, "geometry": {"type": "Point", "coordinates": [142.65056188491144, 64.39584246900405]}}, {"type": "Feature", "properties": {"norad_id": 34680, "name": "COSMOS 2251 DEB", "group": "cosmos-2251-debris", "lat": 53.89218458339025, "lon": 146.26577098407697, "alt_km": 690.1168482510202, "timestamp": "2025-12-16T05:49:09.608189+00:00", "meta": {"OBJECT_NAME": "COSMOS 2251 DEB", "OBJECT_ID": "1993-036YA", "EPOCH": "2025-12-14T19:44:01.735584", "MEAN_MOTION": 14.60652791, "ECCENTRICITY": 0.00066661, "INCLINATION": 74.0426, "RA_OF_ASC_NODE": 125.8806, "ARG_OF_PERICENTER": 224.2786, "MEAN_ANOMALY": 287.945, "EPHEMERIS_TYPE": 0, "CLASSIFICATION_TYPE": "U", "NORAD_CAT_ID": 34680, "ELEMENT_SET_NO": 999, "REV_AT_EPOCH": 88358, "BSTAR": 0.001065471, "MEAN_MOTION_DOT": 5.163e-05, "MEAN_MOTION_DDOT": 0}, "tle": {"line1": "1 34680U 93036YA  25348.82224231  .00005163  00000+0  10655-2 0  9991", "line2": "2 34680  74.0426 125.8806 0006666 224.2786 287.9450 14.60652791883589"}}, "geometry": {"type": "Point", "coordinates": [146.26577098407697, 53.89218458339025]}}, {"type": "Feature", "properties": {"norad_id": 34681, "name": "COSMOS 2251 DEB", "group": "cosmos-2251-debris", "lat": -29.25847098665481, "lon": 112.68388772128264, "alt_km": 635.857869385919, "timestamp": "2025-12-16T05:49:09.608199+00:00", "meta": {"OBJECT_NAME": "COSMOS 2251 DEB", "OBJECT_ID": "1993-036YB", "EPOCH": "2025-12-15T22:42:32.609664", "MEAN_MOTION": 14.83296882, "ECCENTRICITY": 0.00256273, "INCLINATION": 74.0627, "RA_OF_ASC_NODE": 284.0574, "ARG_OF_PERICENTER": 340.5285, "MEAN_ANOMALY": 88.8087, "EPHEMERIS_TYPE": 0, "CLASSIFICATION_TYPE": "U", "NORAD_CAT_ID": 34681, "ELEMENT_SET_NO": 999, "REV_AT_EPOCH": 89318, "BSTAR": 0.001012184, "MEAN_MOTION_DOT": 8.308e-05, "MEAN_MOTION_DDOT": 0}, "tle": {"line1": "1 34681U 93036YB  25349.94621076  .00008308  00000+0  10122-2 0  9997", "line2": "2 34681  74.0627 284.0574 0025627 340.5285  88.8087 14.83296882893188"}}, "geometry": {"type": "Point", "coordinates": [112.68388772128264, -29.25847098665481]}}, {"type": "Feature", "properties": {"norad_id": 34682, "name": "COSMOS 2251 DEB", "group": "cosmos-2251-debris", "lat": 17.085520161447977, "lon": 81.36415254999771, "alt_km": 709.5013260686119, "timestamp": "2025-12-16T05:49:09.608209+00:00", "meta": {"OBJECT_NAME": "COSMOS 2251 DEB", "OBJECT_ID": "1993-036YC", "EPOCH": "2025-12-15T00:54:50.214816", "MEAN_MOTION": 14.58915163, "ECCENTRICITY": 0.00182372, "INCLINATION": 74.0399, "RA_OF_ASC_NODE": 78.6105, "ARG_OF_PERICENTER": 211.429, "MEAN_ANOMALY": 323.4422, "EPHEMERIS_TYPE": 0, "CLASSIFICATION_TYPE": "U", "NORAD_CAT_ID": 34682, "ELEMENT_SET_NO": 999, "REV_AT_EPOCH": 88719, "BSTAR": 0.00053862217, "MEAN_MOTION_DOT": 2.501e-05, "MEAN_MOTION_DDOT": 0}, "tle": {"line1": "1 34682U 93036YC  25349.03808119  .00002501  00000+0  53862-3 0  9991", "line2": "2 34682  74.0399  78.6105 0018237 211.4290 323.4422 14.58915163887190"}}, "geometry": {"type": "Point", "coordinates": [81.36415254999771, 17.085520161447977]}}]}